{"type":"Topology","objects":{"states":{"geometries":[{"properties":{"state_code":"SON","state_name":"Sonora"},"type":"MultiPolygon","arcs":[[[0]],[[1]],[[2]],[[3]],[[4]],[[5]],[[6]],[[7]]],"id":"feature_00"},{"properties":{"state_code":"BCN","state_name":"Baja California"},"type":"MultiPolygon","arcs":[[[8]],[[9]],[[10]],[[11]],[[12]],[[13]],[[14]],[[15]],[[16]],[[17]],[[18]],[[19]],[[20]]],"id":"feature_01"},{"properties":{"state_code":"CHH","state_name":"Chihuahua"},"type":"Polygon","arcs":[[21]],"id":"feature_02"},{"properties":{"state_code":"COA","state_name":"Coahuila"},"type":"Polygon","arcs":[[22]],"id":"feature_03"},{"properties":{"state_code":"TAM","state_name":"Tamaulipas"},"type":"MultiPolygon","arcs":[[[23]],[[24]]],"id":"feature_04"},{"properties":{"state_code":"NLE","state_name":"Nuevo Le\u00f3n"},"type":"Polygon","arcs":[[25]],"id":"feature_05"},{"properties":{"state_code":"ROO","state_name":"Quintana Roo"},"type":"MultiPolygon","arcs":[[[26]],[[27]],[[28]],[[29]],[[30]]],"id":"feature_06"},{"properties":{"state_code":"CAM","state_name":"Campeche"},"type":"MultiPolygon","arcs":[[[31]],[[32]]],"id":"feature_07"},{"properties":{"state_code":"TAB","state_name":"Tabasco"},"type":"Polygon","arcs":[[33]],"id":"feature_08"},{"properties":{"state_code":"CHP","state_name":"Chiapas"},"type":"MultiPolygon","arcs":[[[34]],[[35]]],"id":"feature_09"},{"properties":{"state_code":"COL","state_name":"Colima"},"type":"MultiPolygon","arcs":[[[36]],[[37]],[[38]],[[39]]],"id":"feature_10"},{"properties":{"state_code":"NAY","state_name":"Nayarit"},"type":"MultiPolygon","arcs":[[[40]],[[41]],[[42]],[[43]],[[44]]],"id":"feature_11"},{"properties":{"state_code":"BCS","state_name":"Baja California Sur"},"type":"MultiPolygon","arcs":[[[45]],[[46]],[[47]],[[48]],[[49]],[[50]],[[51]],[[52]],[[53]],[[54]],[[55]],[[56]],[[57]],[[58]],[[59]],[[60]],[[61]],[[62]],[[63]],[[64]]],"id":"feature_12"},{"properties":{"state_code":"SIN","state_name":"Sinaloa"},"type":"MultiPolygon","arcs":[[[65]],[[66]]],"id":"feature_13"},{"properties":{"state_code":"YUC","state_name":"Yucat\u00e1n"},"type":"Polygon","arcs":[[67]],"id":"feature_14"},{"properties":{"state_code":"VER","state_name":"Veracruz"},"type":"MultiPolygon","arcs":[[[68]],[[69]]],"id":"feature_15"},{"properties":{"state_code":"JAL","state_name":"Jalisco"},"type":"Polygon","arcs":[[70]],"id":"feature_16"},{"properties":{"state_code":"MIC","state_name":"Michoac\u00e1n"},"type":"Polygon","arcs":[[71]],"id":"feature_17"},{"properties":{"state_code":"GRO","state_name":"Guerrero"},"type":"Polygon","arcs":[[72]],"id":"feature_18"},{"properties":{"state_code":"OAX","state_name":"Oaxaca"},"type":"Polygon","arcs":[[73]],"id":"feature_19"},{"properties":{"state_code":"MEX","state_name":"M\u00e9xico"},"type":"Polygon","arcs":[[74]],"id":"feature_20"},{"properties":{"state_code":"PUE","state_name":"Puebla"},"type":"Polygon","arcs":[[75]],"id":"feature_21"},{"properties":{"state_code":"MOR","state_name":"Morelos"},"type":"Polygon","arcs":[[76]],"id":"feature_22"},{"properties":{"state_code":"QUE","state_name":"Quer\u00e9taro"},"type":"Polygon","arcs":[[77]],"id":"feature_23"},{"properties":{"state_code":"HID","state_name":"Hidalgo"},"type":"Polygon","arcs":[[78]],"id":"feature_24"},{"properties":{"state_code":"GUA","state_name":"Guanajuato"},"type":"Polygon","arcs":[[79]],"id":"feature_25"},{"properties":{"state_code":"SLP","state_name":"San Luis Potos\u00ed"},"type":"Polygon","arcs":[[80,-82]],"id":"feature_26"},{"properties":{"state_code":"ZAC","state_name":"Zacatecas"},"type":"Polygon","arcs":[[81,82]],"id":"feature_27"},{"properties":{"state_code":"AGU","state_name":"Aguascalientes"},"type":"Polygon","arcs":[[83]],"id":"feature_28"},{"properties":{"state_code":"DUR","state_name":"Durango"},"type":"Polygon","arcs":[[84]],"id":"feature_29"},{"properties":{"state_code":"TLA","state_name":"Tlaxcala"},"type":"Polygon","arcs":[[85]],"id":"feature_30"},{"properties":{"state_code":"CMX","state_name":"Ciudad de M\u00e9xico"},"type":"Polygon","arcs":[[86]],"id":"feature_31"}],"type":"GeometryCollection"}},"bbox":[-118.365383,14.549346,-86.700592,32.712836],"transform":{"scale":[0.0031667957795779573,0.001816530653065307],"translate":[-118.365383,14.549346]},"arcs":[[[1120,9881],[1847,-645],[146,-2491],[-636,269],[-1357,2867]],[[2628,6902],[18,-10],[15,-26],[-17,23],[-16,13]],[[2451,7029],[0,36],[3,19],[19,-73],[-22,18]],[[1923,7828],[-97,58],[101,205],[21,-124],[-25,-139]],[[1130,9498],[24,-21],[18,-41],[-34,14],[-8,48]],[[2884,6449],[5,44],[17,-7],[2,-13],[-24,-24]],[[2865,6434],[10,37],[2,-1],[-2,-19],[-10,-17]],[[2203,7387],[0,11],[7,-19],[-5,2],[-2,6]],[[1150,9999],[20,-1393],[599,-1202],[-1377,2473],[758,122]],[[1001,7593],[13,-111],[-23,-62],[-41,30],[51,143]],[[1728,7778],[10,-4],[34,-44],[-6,-8],[-38,56]],[[1816,7804],[21,2],[-2,-31],[-16,-2],[-3,31]],[[1651,7991],[7,-44],[-120,165],[-24,140],[137,-261]],[[1347,7405],[-6,6],[-1,6],[16,-12],[-9,0]],[[1313,7405],[23,46],[5,1],[-9,-47],[-19,0]],[[36,8004],[8,-96],[-20,-26],[-24,146],[36,-24]],[[875,7579],[2,-4],[7,-1],[-8,-6],[-1,11]],[[1530,8008],[5,-2],[4,-31],[-7,9],[-2,24]],[[1246,8498],[6,0],[2,-14],[-9,3],[1,11]],[[711,8779],[1,-1],[2,-7],[-6,2],[3,6]],[[351,9838],[3,-3],[2,-14],[-2,0],[-3,17]],[[3205,9484],[1549,-1512],[-100,-1314],[-989,-563],[-573,783],[113,2606]],[[5538,5514],[-846,394],[-144,1452],[518,1087],[794,-1168],[-322,-1765]],[[5891,7223],[812,-938],[-225,-2062],[-691,357],[503,1407],[-399,1236]],[[6489,4498],[6,23],[3,7],[-3,-28],[-15,-21],[9,19]],[[5860,7279],[430,-1292],[-598,-1231],[-277,1753],[445,770]],[[9465,2161],[-309,741],[735,981],[-253,-1875],[-173,153]],[[9800,2193],[7,19],[-22,-91],[15,72]],[[9819,2306],[7,-34],[-5,-26],[2,15],[-4,45]],[[9984,3327],[-15,-64],[-63,-119],[9,135],[69,48]],[[9999,3661],[-12,24],[-1,24],[4,-24],[9,-24]],[[9227,1873],[-857,1],[-198,383],[665,1197],[390,-1581]],[[8452,2325],[24,-11],[-101,-56],[77,67]],[[8644,1791],[-820,-235],[-173,458],[521,243],[472,-466]],[[8505,1489],[315,-631],[-566,-858],[-586,881],[256,1015],[581,-407]],[[7664,853],[20,-33],[21,-23],[-47,33],[6,23]],[[1134,2095],[16,0],[1,-5],[-25,-8],[8,13]],[[2343,2340],[7,-40],[-45,23],[21,55],[17,-38]],[[2384,2642],[9,-19],[-14,-22],[-1,11],[6,30]],[[4618,2280],[-186,225],[-83,40],[298,181],[-29,-446]],[[3834,3732],[-1,-21],[-17,13],[7,11],[11,-3]],[[3777,3817],[5,-34],[-33,26],[11,15],[17,-7]],[[3743,3880],[-38,2],[-9,51],[36,-14],[11,-39]],[[3695,3979],[2,-21],[-7,-7],[-3,11],[8,17]],[[4129,3378],[-140,1001],[101,292],[464,-913],[-425,-380]],[[2693,5326],[11,-48],[-41,131],[4,-7],[26,-76]],[[2148,5411],[32,-27],[-67,16],[5,9],[30,2]],[[2088,5449],[14,-81],[-94,118],[45,3],[35,-40]],[[2539,5487],[12,-26],[-19,-37],[-22,92],[29,-29]],[[2417,5805],[43,-43],[16,-75],[-37,19],[-22,99]],[[1977,5542],[14,-42],[-77,139],[56,260],[7,-357]],[[2400,6080],[-13,28],[10,37],[7,-63],[-4,-2]],[[2300,6303],[-31,-53],[-8,-54],[9,131],[30,-24]],[[1356,7405],[414,-2],[1019,-2691],[-1753,2611],[320,82]],[[1617,6702],[22,-2],[12,-30],[-40,24],[6,8]],[[2456,5661],[6,6],[2,-16],[-6,4],[-2,6]],[[825,5728],[0,0]],[[2416,5921],[8,2],[-13,-27],[-1,16],[6,9]],[[1976,6020],[1,-78],[-6,-34],[5,112]],[[2307,6139],[13,-4],[-3,-23],[-6,10],[-4,17]],[[2244,6201],[4,-8],[0,-18],[-4,8],[0,18]],[[2235,6373],[8,5],[-1,-17],[-7,-1],[0,13]],[[1979,6978],[17,-5],[-7,-20],[-7,2],[-3,23]],[[2044,7090],[-3,11],[14,-6],[-1,-4],[-10,-1]],[[998,7345],[13,-13],[0,-9],[-18,20],[5,2]],[[3011,5988],[14,-23],[-72,34],[36,0],[22,-11]],[[3992,4382],[-1164,1727],[327,788],[793,-1659],[44,-856]],[[8837,3454],[188,254],[709,118],[-592,-1018],[-305,646]],[[6500,4252],[606,-1954],[703,-784],[-1158,758],[-400,989],[249,991]],[[6541,3985],[13,-26],[-24,67],[11,-41]],[[4349,2532],[-349,693],[542,1301],[74,-849],[701,357],[-357,-1457],[-611,-45]],[[5114,1856],[-485,369],[199,833],[897,48],[-611,-1250]],[[6256,974],[-791,521],[-349,489],[948,220],[192,-1230]],[[7658,830],[-1402,142],[65,868],[532,428],[805,-1438]],[[6229,2704],[-516,-589],[-111,264],[247,792],[380,-467]],[[6227,2463],[274,986],[330,-1335],[-623,-220],[19,569]],[[6227,2463],[-10,-328],[-262,108],[70,286],[202,-66]],[[6101,3699],[-106,-95],[-248,-625],[-93,554],[447,166]],[[6102,3648],[288,-57],[-4,-771],[-537,351],[253,477]],[[5865,3782],[-229,-832],[-500,264],[183,800],[546,-232]],[[5538,5514],[780,-1277],[-74,-569],[-925,346],[-246,776]],[[5538,5514],[-465,-724]],[[5073,4790],[299,-364],[-53,-412],[-703,-337],[-28,1572],[950,265]],[[5217,4111],[-131,-191],[-189,99],[179,338],[141,-246]],[[3621,5639],[238,1084],[674,8],[480,-1267],[-575,-1187],[-817,1362]],[[6351,2846],[60,6],[140,-226],[-188,-114],[-12,334]],[[6076,2764],[52,-163],[-26,-119],[-93,104],[67,178]]]}
